{
  "type": "FeatureCollection",
  "features": [
    {
      "type": "Feature",
      "geometry": null,
      "properties": {
        "name": "Река Амазонка",
        "description": "Это самая полноводная река мира — её бассейн занимает около 40% всей Южной Америки!",
        "name_en": "Amazon"
      }
    },
    {
      "type": "Feature",
      "geometry": null,
      "properties": {
        "name": "Река Ориноко",
        "description": "Река известна своей уникальной особенностью: во время сезона дождей воды Ориноко меняют направление течения и начинают течь вспять.",
        "name_en": "Orinoco"
      }
    },
    {
      "type": "Feature",
      "geometry": null,
      "properties": {
        "name": "Река Замбези",
        "description": "Вторая по длине река Африки, знаменитая своим водопадом Виктория — одним из крупнейших водопадов планеты.",
        "name_en": "Zambezi"
      }
    },
    {
      "type": "Feature",
      "geometry": null,
      "properties": {
        "name": "Река Нил",
        "description": "Древнейшая цивилизация Египта возникла именно вдоль берегов Нила благодаря плодородному илу, приносимому ежегодно разливающимися водами реки.",
        "name_en": "Nile"
      }
    },
    {
      "type": "Feature",
      "geometry": null,
      "properties": {
        "name": "Река Хуанхэ (Желтая река)",
        "description": "Считается колыбелью китайской цивилизации, однако часты наводнения сделали реку ещё известной как «скорбная река Китая».",
        "name_en": "Yellow"
      }
    },
    {
      "type": "Feature",
      "geometry": null,
      "properties": {
        "name": "Река Окаванго",
        "description": "Эта река уникальна тем, что теряется среди болот дельты в пустыне Калахари, создавая крупнейший внутренний водоём в мире.",
        "name_en": "Okavango"
      }
    },
    {
      "type": "Feature",
      "geometry": {
        "type": "Point",
        "coordinates": [
          25.8400142,
          -17.9296175
        ]
      },
      "properties": {
        "name": "Водопад Виктория",
        "description": "Местные жители называют этот величественный водопад «гремящий дым», намекая на огромные облака водяной пыли, поднимающиеся над ним.",
        "name_en": "Victoria Falls"
      }
    },
    {
      "type": "Feature",
      "geometry": null,
      "properties": {
        "name": "Озеро Ньяса",
        "description": "Одно из глубочайших озёр мира и второе по величине озеро Восточной Африки, изобилующее разнообразием рыб, включая многие эндемичные виды.",
        "name_en": "Malawi"
      }
    },
    {
      "type": "Feature",
      "geometry": null,
      "properties": {
        "name": "Озеро Танганьика",
        "description": "Самое длинное пресноводное озеро планеты, богатое жизнью и занимающее важное место в экосистемах Центральной Африки.",
        "name_en": "Tanganyika"
      }
    },
    {
      "type": "Feature",
      "geometry": null,
      "properties": {
        "name": "Озеро Виктория",
        "description": "Крупнейшее африканское озеро и одно из Великих Африканских озёр, играющее ключевую роль в экономике стран региона.",
        "name_en": "Nyanza"
      }
    },
    {
      "type": "Feature",
      "geometry": null,
      "properties": {
        "name": "Озеро Ханка",
        "description": "Расположено между Приморским краем России и Китаем, является крупнейшим пресноводным озером юга Дальнего Востока России.",
        "name_en": "Khanka"
      }
    },
    {
      "type": "Feature",
      "geometry": null,
      "properties": {
        "name": "Озеро Балхаш",
        "description": "Уникальное озеро Казахстана, имеющее две части с разной степенью солёности воды.",
        "name_en": "Balkhash"
      }
    },
    {
      "type": "Feature",
      "geometry": null,
      "properties": {
        "name": "Озеро Лобнор",
        "description": "Ранее крупнейшее внутриконтинентальное озеро Китая, ныне высохло вследствие изменения климата и хозяйственной деятельности.",
        "name_en": "Lake Lop Nur"
      }
    },
    {
      "type": "Feature",
      "geometry": null,
      "properties": {
        "name": "Горная система Анды",
        "description": "Самая протяжённая горная цепь Западного полушария, протянувшаяся почти на 7 тысяч километров.",
        "name_en": "Andes"
      }
    },
    {
      "type": "Feature",
      "geometry": null,
      "properties": {
        "name": "Горная система Тибет",
        "description": "Плато, расположенное на высоте более 4 км, считается самой высокой территорией на Земле и часто называется «Крышей мира».",
        "name_en": "Tibetan Plateau"
      }
    },
    {
      "type": "Feature",
      "geometry": null,
      "properties": {
        "name": "Горная система Куньлунь",
        "description": "Китайская гора мифического бессмертия, согласно древним легендам там обитают боги и духи.",
        "name_en": "Kunlun Mountains"
      }
    },
    {
      "type": "Feature",
      "geometry": null,
      "properties": {
        "name": "Горная система Тянь-Шань",
        "description": "Название буквально означает «Небесные горы», эта цепь включает высочайшие вершины Средней Азии.",
        "name_en": "Tian Shan"
      }
    },
    {
      "type": "Feature",
      "geometry": null,
      "properties": {
        "name": "Озеро Иссык-Куль",
        "description": "Второе по глубине солёное озеро Азии, окружённое живописными горами Тянь-Шаня.",
        "name_en": "Issyk-Kul"
      }
    },
    {
      "type": "Feature",
      "geometry": null,
      "properties": {
        "name": "Горная система Памир",
        "description": "Место встречи нескольких горных систем Евразии, известное своими труднопроходимыми перевалами и суровыми климатическими условиями.",
        "name_en": "Pamir Mountains"
      }
    }
  ]
}